#cP2017  2 14  0  0  0.00000000       2 ORBIT IGS14 HLM  IGS
## 1936 172800.00000000   900.00000000 57798 0.0000000000000
+   32   G01G02G03G04G05G06G07G08G09G10G11G12G13G14G15G16G17
+        G18G19G20G21G22G23G24G25G26G27G28G29G30G31G32  0  0
*  2017  2 14  0  0  0.00000000
PG01   9950.635414 -20205.485937 -13973.830231     49.177035  7  6  8 122
PG02 -21716.776296  13624.376066  -5710.906483    476.234805 11  9  9 137
PG03   1110.563354 -15664.982011 -21430.999250   -107.415449  7  7  6 107
PG04  25253.655993   7343.450049   4436.609553 999999.999999
PG05 -20369.792733   4972.775371  16335.426817    -60.795314  8  7  6  76
PG06 -20572.072494   1795.990955 -16686.121693    312.202420 11  9 11  74
PG07  -4018.815318 -15538.056618  21254.946070    382.877218  6  9  6  69
PG08   6560.501406 -21360.557998  14357.571533    -49.477716  7  4  6 101
PG09  -8421.843235 -24418.759701   6138.608062    303.134193  4  7  6  85
PG10  24360.369065  10603.018878   1640.888704   -105.847081  4  7  7  98
PG11   9189.035463 -24573.314890  -4833.692846   -669.838746  8  9  5 126
PG12  -4004.134364  14211.026642 -22234.441714    388.131999  7  8  5 100
PG13 -12349.116894  14028.575693  18766.571019    -69.669496  8  7  7  97
PG14  15157.858506   3075.571829 -21347.877494    -58.694019 10  6  7  80
PG15  -4687.819635  22540.434229  12756.886035   -343.190839  8  8  7  63
PG16  20697.707772  -2190.951827  16623.977054     26.228670 10  9  9 112
PG17 -13838.066620 -12768.613946 -18440.441411   -191.260913 10  9  7 110
PG18  18216.530139  15756.358826  12001.117414    598.624826  7  9  9  83
PG19 -14968.506271  -4452.556653 -21700.386215   -513.191825 10  9  8 116
PG20  -4091.382501  15329.987734  21147.362623    459.944522  9  6  8 102
PG21  10176.536047  12428.834285  21934.054079   -521.536891  9  8  7  91
PG22   8845.204288 -13588.362232 -20805.493851    102.183254 12  5 10 104
PG23    499.979632 -25510.547961  -6293.492576   -205.292689 11  7 10  88
PG24 -11790.970459  20814.576198 -11360.030128    -30.474629  7  3  6 109
PG25  10992.376889  16950.705947 -17489.285324   -335.498116 10  8 11 114
PG26  25137.533475   3464.369826   7989.243665   -519.783739  8 11 10 103
PG27  12975.034381  -9527.513287  21048.422614    209.131415  7  8  5  64
PG28 -21918.735142 -14320.440281   5096.944667    589.614471  9  7 10 115
PG29   4938.954660  25863.775101   3613.272040    626.897395  3  8  7 113
PG30 -15660.277115  -6809.742603  20365.213648    160.626516  5  5  6 104
PG31  21557.326824  -2911.367902 -15427.751533    219.201492  9 10  8 113
PG32  14945.426356  12285.672886 -18204.155600   -318.989046  7 10  5  80
*  2017  2 14  0 15  0.00000000
